ONEWEB-0056             
1 45159U 20008AE  24356.39172550  .00000382  00000+0  10565-2 0  9997
2 45159  87.8894 144.3811 0001789  89.8008 270.3325 13.10379598237853
ONEWEB-0057             
1 45160U 20008AF  24356.09291761 -.00000174  00000+0 -53432-3 0  9994
2 45160  87.8899 144.4475 0001532  92.6254 267.5049 13.10377135237719
ONEWEB-0058             
1 45161U 20008AG  24355.92706890 -.00000083  00000+0 -27472-3 0  9994
2 45161  87.8893 144.5043 0001343  97.5094 262.6186 13.10376656238022
ONEWEB-0059             
1 45162U 20008AH  24355.84723693 -.00000531  00000+0 -15563-2 0  9991
2 45162  87.8900 144.5088 0001379  99.7375 260.3908 13.10375467237166
ONEWEB-0062             
1 45163U 20008AJ  24355.87383053  .00000704  00000+0  19790-2 0  9993
2 45163  87.8895 144.4864 0001430 111.3119 248.8161 13.10373698237038
ONEWEB-0065             
1 45164U 20008AK  24356.38672421 -.00000356  00000+0 -10547-2 0  9997
2 45164  87.8905 144.3990 0001653  92.9270 267.2047 13.10376140237537
ONEWEB-0066             
1 45424U 20020A   24355.83739789  .00000480  00000+0  13189-2 0  9991
2 45424  87.8900 129.3378 0001280  86.5198 273.6077 13.11416307231469
ONEWEB-0067             
1 45425U 20020B   24355.79853458 -.00000435  00000+0 -12646-2 0  9996
2 45425  87.8888 129.2835 0001479  92.3772 267.7526 13.11417813231517
